MOLNIYA 2-9             
1 07276U 74026A   21339.60033621  .00000064  00000+0  00000+0 0  9998
2 07276  64.2501 255.0160 6580756 283.5922  15.5476  2.45095594244460
MOLNIYA 2-10            
1 07376U 74056A   21339.51577108  .00001089  00000+0  00000+0 0  9993
2 07376  63.8740 114.6672 6684548 288.3696  13.3544  2.01167990346483
MOLNIYA 1-S             
1 07392U 74060A   21340.84123132 -.00000335  00000+0  00000+0 0  9992
2 07392   5.5989 285.8791 0010184 204.9599 354.7834  1.00288251117595
MOLNIYA 1-29            
1 07780U 75036A   21338.77668287  .00000172  00000+0 -16619-1 0  9995
2 07780  63.3378 237.9693 7053574 289.5163  11.0445  2.00589782341710
MOLNIYA 2-14            
1 08195U 75081A   21340.68403464 -.00000405  00000+0  00000+0 0  9997
2 08195  63.3704 209.4015 6933960 293.8250  10.6794  2.02105999339058
MOLNIYA 1-32            
1 08601U 76006A   21337.05320365  .00000694  00000+0 -11515-2 0  9998
2 08601  63.3013 326.1214 7355644 283.0540  10.4960  1.99943892 48734
MOLNIYA 1-36            
1 09880U 77021A   21340.90709428 -.00000368  00000+0  10201-2 0  9994
2 09880  63.1621 295.6138 7317199 289.1022   9.5175  2.00339238225603
MOLNIYA 3-8             
1 10455U 77105A   21340.15444779 -.00000681  00000+0 -37332-3 0  9993
2 10455  62.9529  28.1465 7396828 281.1300  10.7440  2.00436118323261
MOLNIYA 1-40            
1 10925U 78055A   21341.27711049 -.00000644  00000+0  00000+0 0  9997
2 10925  62.9468  75.5481 7213708 279.9429  12.3043  2.00587944318851
MOLNIYA 3-10            
1 11057U 78095A   21341.32224720 -.00000136  00000+0 -56834-3 0  9996
2 11057  62.8964 110.7420 5815182 308.0208  12.4428  4.09831641375863
MOLNIYA 3-13            
1 11896U 80063A   21339.54473079  .00000040  00000+0  00000+0 0  9991
2 11896  62.6219 161.7434 7043844 276.1183  14.5699  2.00579851303251
MOLNIYA 1-49            
1 12156U 81009A   21339.72144395  .00000111  00000+0 -20155-2 0  9994
2 12156  61.7203 194.3980 7192729 259.5557  19.4691  2.05707871217507
MOLNIYA 1-52            
1 13012U 81123A   21340.99846597  .00000982  00000+0  11714-1 0  9992
2 13012  62.3366 307.7920 7294375 252.2280  22.0158  2.00843432292783
MOLNIYA 1-53            
1 13070U 82015A   21340.35270150  .00001532  00000+0  17285-1 0  9994
2 13070  62.4960 239.2303 7176303 281.8213  12.1818  2.00457110291388
MOLNIYA 3-20            
1 13875U 83015A   21338.13770520 -.00001081  00000+0 -17930-2 0  9996
2 13875  63.1677  23.5246 7378082 256.6811  18.8012  2.00844160219795
MOLNIYA 1-56            
1 13890U 83019A   21340.58657998 -.00001693  00000+0 -49370-4 0  9996
2 13890  63.0820  48.8453 7402106 262.6162  16.1769  1.99913477282753
MOLNIYA 1-62            
1 15214U 84089A   21339.26796028  .00003452  00000+0  51205-3 0  9999
2 15214  62.7787  49.9983 7534904 269.3236  12.8839  1.98108421240402
MOLNIYA 1-63            
1 15429U 84124A   21341.12186927  .00000078  00000+0  00000+0 0  9990
2 15429  63.6419 185.7856 6556871 261.4614  33.3435  2.00333852270943
MOLNIYA 3-24            
1 15738U 85040A   21340.30353588  .00000037  00000+0  00000+0 0  9994
2 15738  63.7728 117.6343 6706251 247.9154  31.5428  2.55626778298935
MOLNIYA 3-27            
1 16393U 85117A   21336.42677062  .00000073  00000+0  00000+0 0  9991
2 16393  64.5346 106.2756 6857712 250.2956  28.0762  2.12397236270014
MOLNIYA 1-69            
1 17078U 86089A   21339.73697352  .00000913  00000+0  00000+0 0  9995
2 17078  64.0643 204.7700 6597487 260.5688  24.8828  2.00962939256936
MOLNIYA 3-31            
1 17328U 87008A   21340.50572592 -.00000146  00000+0  00000+0 0  9999
2 17328  63.7690 150.6315 6886584 255.2930  24.7142  2.00632391251998
MOLNIYA 1-71            
1 18946U 88017A   21341.01988278  .00000333  00000+0  00000+0 0  9993
2 18946  63.4576 146.9314 7004719 257.2784  22.4094  2.00562049247239
MOLNIYA 1-75            
1 19807U 89014A   21340.08030655  .00001258  00000+0  00000+0 0  9998
2 19807  64.1487 306.6378 6954627 268.1677  18.0246  2.00324312240123
MOLNIYA 1-80            
1 21118U 91012A   21340.19524266  .00000139  00000+0  00000+0 0  9992
2 21118  65.1021 354.4484 6849309 280.2005  14.5595  2.05245331227014
MOLNIYA 3-40            
1 21196U 91022A   21340.73201533  .00001064  00000+0  00000+0 0  9996
2 21196  65.0962 347.8326 6882493 276.9039  15.3777  2.03001582225749
MOLNIYA 1-81            
1 21426U 91043A   21340.62393308 -.00000203  00000+0  00000+0 0  9990
2 21426  64.2056   8.7346 7115314 268.3174  16.5204  2.00610492223279
MOLNIYA 3-41            
1 21706U 91065A   21339.62328525 -.00000579  00000+0  00000+0 0  9998
2 21706  64.1108 186.4920 6739849 258.1840  24.6853  2.04362624222904
MOLNIYA 3-42            
1 22178U 92067A   21340.99637744  .00000146  00000+0  00000+0 0  9992
2 22178  64.6837 236.5441 6495286 270.1952  21.2339  2.20433964220273
MOLNIYA 1-86            
1 22671U 93035A   21340.86704943  .00000033  00000+0  14893-3 0  9992
2 22671  63.1824 348.3286 4826459   4.3044 358.7142  5.62631248341466
MOLNIYA 1-87            
1 22949U 93079A   21339.83110886 -.00001003  00000+0  00000+0 0  9990
2 22949  63.6804 114.0369 6815056 285.6681  13.3092  2.02870198 71009
MOLNIYA 1-88            
1 23420U 94081A   21340.06918411  .00000057  00000+0  00000+0 0  9993
2 23420  64.2699 238.8530 5874223 286.4910  19.4155  3.34495974107235
MOLNIYA 3-47            
1 23642U 95042A   21337.68282650 -.00000175  00000+0  00000+0 0  9992
2 23642  63.6957  96.7771 6870161 285.7382  12.9705  2.01927127193060
MOLNIYA 1-90            
1 24960U 97054A   21340.42957985  .00000105  00000+0  15163-2 0  9998
2 24960  63.6269 206.9163 6193057 299.9667  12.9771  3.18686502201853
MOLNIYA 1-91            
1 25485U 98054A   21341.35500750  .00000198  00000+0  22925-2 0  9995
2 25485  62.9728 180.2395 6828155 291.8213 329.2368  2.36442444173837
MOLNIYA 3-50            
1 25847U 99036A   21339.10833967 -.00000472  00000+0 -31595-4 0  9999
2 25847  62.9756   5.3052 7437710 280.7451  10.5328  2.00634744164217
